      2.10          N: GNSS NAV DATA                        RINEX VERSION / TYPE
fic2rin                                 08/22/2023 00:18:02 PGM / RUN BY / DATE
                                                            END OF HEADER
27 23  8 21 14  0  0.0 -.259215012193D-04 -.659383658785D-11  .000000000000D+00
     .170000000000D+02 -.413750000000D+02  .458983404215D-08 -.116480513924D+01
    -.199303030968D-05  .115775251761D-01  .555999577045D-05  .515366692162D+04
     .136800000000D+06  .236555933952D-06 -.302270651220D+00  .391155481339D-07
     .966519177620D+00  .270687500000D+03  .742654517627D+00 -.821677083292D-08
    -.166078346401D-09  .100000000000D+01  .227600000000D+04  .000000000000D+00
     .240000000000D+01  .000000000000D+00  .139698386192D-08  .170000000000D+02
     .129600000000D+06  .400000000000D+01
16 23  8 21 14  0  0.0 -.465284567326D-03  .511590769747D-11  .000000000000D+00
     .140000000000D+02  .558437500000D+02  .463840749400D-08 -.252054453548D+00
     .315904617310D-05  .133351873374D-01  .493973493576D-05  .515364392471D+04
     .136800000000D+06  .111758708954D-06 -.125713457179D+01  .186264514923D-06
     .963944715367D+00  .287093750000D+03  .791386137255D+00 -.849642533879D-08
     .282511767749D-09  .100000000000D+01  .227600000000D+04  .000000000000D+00
     .240000000000D+01  .000000000000D+00 -.102445483208D-07  .140000000000D+02
     .129600000000D+06  .400000000000D+01
10 23  8 21 14  0  0.0 -.501852482557D-04 -.159161572810D-11  .000000000000D+00
     .500000000000D+02  .266562500000D+02  .451125934063D-08  .806455764645D+00
     .155903398991D-05  .870492134709D-02  .574812293053D-05  .515368563461D+04
     .136800000000D+06  .186264514923D-08  .179513158266D+01  .102445483208D-06
     .979667104119D+00  .278843750000D+03 -.244336721404D+01 -.825855828782D-08
     .129291099779D-09  .100000000000D+01  .227600000000D+04  .000000000000D+00
     .240000000000D+01  .000000000000D+00  .232830643654D-08  .500000000000D+02
     .129600000000D+06  .400000000000D+01
9  23  8 21 14  0  0.0 -.808644108474D-04  .989075488178D-11  .000000000000D+00
     .380000000000D+02 -.497500000000D+02  .484484466437D-08 -.685122670406D+00
    -.258348882198D-05  .264271593187D-02  .648759305477D-05  .515355527306D+04
     .136800000000D+06 -.167638063431D-07  .282106325307D+01  .540167093277D-07
     .956931819640D+00  .250718750000D+03  .193631642696D+01 -.828355932921D-08
    -.354300472323D-09  .100000000000D+01  .227600000000D+04  .000000000000D+00
     .240000000000D+01  .000000000000D+00  .931322574615D-09  .380000000000D+02
     .129600000000D+06  .400000000000D+01
12 23  8 21 14  0  0.0 -.415516085923D-03 -.443378667114D-11  .000000000000D+00
     .800000000000D+02  .571250000000D+02  .453268880468D-08  .156453405433D+01
     .287592411041D-05  .865331036039D-02  .542961061001D-05  .515355783272D+04
     .136800000000D+06 -.109896063805D-06 -.127532296790D+01 -.203028321266D-06
     .964297360547D+00  .274781250000D+03  .138788904425D+01 -.824641492485D-08
     .280368821344D-09  .100000000000D+01  .227600000000D+04  .000000000000D+00
     .240000000000D+01  .000000000000D+00 -.125728547573D-07  .800000000000D+02
     .129600000000D+06  .400000000000D+01
6  23  8 21 14  0  0.0  .563126057386D-03 -.557065504836D-11  .000000000000D+00
     .430000000000D+02 -.225937500000D+02  .382408786004D-08  .310274607675D+01
    -.101700425148D-05  .270364712924D-02  .106319785118D-04  .515373010826D+04
     .136800000000D+06 -.316649675369D-07  .759342550808D+00  .819563865662D-07
     .989496400954D+00  .188968750000D+03 -.784043280355D+00 -.762424615188D-08
     .138934358602D-09  .100000000000D+01  .227600000000D+04  .000000000000D+00
     .240000000000D+01  .000000000000D+00  .372529029846D-08  .430000000000D+02
     .129600000000D+06  .400000000000D+01
15 23  8 21 14  0  0.0  .697635114193D-04  .363797880709D-11  .000000000000D+00
     .470000000000D+02 -.547187500000D+02  .526986236806D-08 -.221564433290D+01
    -.273250043392D-05  .153104418423D-01  .497885048389D-05  .515376642418D+04
     .136800000000D+06  .204890966415D-06  .270049545370D+01  .186264514923D-08
     .933318102594D+00  .266156250000D+03  .123069045789D+01 -.829141679936D-08
    -.197865384745D-09  .100000000000D+01  .227600000000D+04  .000000000000D+00
     .240000000000D+01  .000000000000D+00 -.107102096081D-07  .470000000000D+02
     .129600000000D+06  .400000000000D+01
31 23  8 21 14  0  0.0 -.222190283239D-03 -.568434188608D-12  .000000000000D+00
     .390000000000D+02  .266875000000D+02  .436268172321D-08  .135667115656D+01
     .160560011864D-05  .103923600400D-01  .112671405077D-04  .515361589050D+04
     .136800000000D+06 -.130385160446D-06 -.237028670398D+01  .335276126862D-07
     .954514310941D+00  .164687500000D+03  .568878150916D+00 -.795676000242D-08
    -.173578658819D-09  .100000000000D+01  .227600000000D+04  .000000000000D+00
     .240000000000D+01  .000000000000D+00 -.130385160446D-07  .390000000000D+02
     .129600000000D+06  .400000000000D+01
17 23  8 21 14  0  0.0  .723013188690D-03  .454747350886D-12  .000000000000D+00
     .270000000000D+02 -.396875000000D+02  .451733102211D-08 -.124154482435D+01
    -.178813934326D-05  .136613438372D-01  .622868537903D-05  .515356449127D+04
     .136800000000D+06 -.245869159698D-06 -.236000993269D+00  .214204192162D-06
     .973264047737D+00  .272343750000D+03 -.140453418760D+01 -.828213069827D-08
    -.163221084528D-09  .100000000000D+01  .227600000000D+04  .000000000000D+00
     .240000000000D+01  .000000000000D+00 -.111758708954D-07  .270000000000D+02
     .129600000000D+06  .400000000000D+01
32 23  8 21 14  0  0.0 -.544510781765D-03 -.670752342558D-11  .000000000000D+00
     .670000000000D+02 -.554062500000D+02  .477734185261D-08 -.595613839010D+00
    -.299699604511D-05  .698003824800D-02  .654906034470D-05  .515378026962D+04
     .136800000000D+06 -.167638063431D-07  .283458877920D+01  .117346644402D-06
     .960513095763D+00  .253875000000D+03 -.220751557447D+01 -.832998983466D-08
    -.450733060555D-09  .100000000000D+01  .227600000000D+04  .000000000000D+00
     .240000000000D+01  .000000000000D+00  .465661287308D-09  .670000000000D+02
     .129600000000D+06  .400000000000D+01
30 23  8 21 14  0  0.0 -.494627282023D-03  .318323145621D-11  .000000000000D+00
     .490000000000D+02  .143437500000D+02  .480912889095D-08  .212754492360D+01
     .644475221634D-06  .658850721084D-02  .116098672152D-04  .515378254318D+04
     .136800000000D+06 -.113621354103D-06 -.238583525564D+01 -.689178705215D-07
     .935591592860D+00  .143468750000D+03 -.254463535985D+01 -.812390982202D-08
    -.139291516336D-09  .100000000000D+01  .227600000000D+04  .000000000000D+00
     .240000000000D+01  .000000000000D+00  .372529029846D-08  .490000000000D+02
     .129600000000D+06  .400000000000D+01
21 23  8 21 14  0  0.0  .150362495333D-03 -.682121026330D-12  .000000000000D+00
     .370000000000D+02 -.122187500000D+02  .444447084434D-08 -.122185061741D+01
    -.977888703346D-06  .247347604018D-01  .114645808935D-04  .515359073067D+04
     .136800000000D+06 -.283122062683D-06  .661679073178D+00 -.303611159325D-06
     .961982798856D+00  .165593750000D+03 -.717803831662D+00 -.828105922507D-08
     .317156067966D-09  .100000000000D+01  .227600000000D+04  .000000000000D+00
     .340000000000D+01  .000000000000D+00 -.102445483208D-07  .370000000000D+02
     .129600000000D+06  .400000000000D+01
24 23  8 21 14  0  0.0 -.296387355775D-03 -.113686837722D-10  .000000000000D+00
     .800000000000D+02 -.446875000000D+01  .469876715108D-08 -.306632486449D+01
    -.212341547012D-06  .142662578728D-01  .110436230898D-04  .515364542580D+04
     .136800000000D+06  .428408384323D-07 -.248279206045D+01 -.102445483208D-06
     .934144859043D+00  .149312500000D+03  .910897516664D+00 -.786854204207D-08
    -.371444043564D-10  .100000000000D+01  .227600000000D+04  .000000000000D+00
     .240000000000D+01  .000000000000D+00  .232830643654D-08  .800000000000D+02
     .129600000000D+06  .400000000000D+01
22 23  8 21 14  0  0.0  .137392431498D-03 -.750333128963D-11  .000000000000D+00
     .480000000000D+02  .569375000000D+02  .465626538071D-08 -.660888856034D+00
     .290013849735D-05  .153938023141D-01  .579468905926D-05  .515361133766D+04
     .136800000000D+06 -.258907675743D-06 -.125381563491D+01 -.186264514923D-08
     .963208345311D+00  .274093750000D+03 -.119508938822D+01 -.846499545818D-08
     .413231498465D-09  .100000000000D+01  .227600000000D+04  .000000000000D+00
     .340000000000D+01  .000000000000D+00 -.111758708954D-07  .480000000000D+02
     .129600000000D+06  .400000000000D+01
26 23  8 21 14  0  0.0  .232048332691D-03 -.159161572810D-11  .000000000000D+00
     .350000000000D+02  .691562500000D+02  .520985986872D-08  .623111817143D+00
     .368617475033D-05  .808220845647D-02  .529922544956D-05  .515373827362D+04
     .136800000000D+06 -.558793544769D-08 -.141598662861D+01  .232830643654D-06
     .932815969129D+00  .262218750000D+03  .463936487605D+00 -.858785771874D-08
     .228580949885D-09  .100000000000D+01  .227600000000D+04  .000000000000D+00
     .240000000000D+01  .000000000000D+00  .698491930962D-08  .350000000000D+02
     .129600000000D+06  .400000000000D+01
20 23  8 21 14  0  0.0  .416052527726D-03 -.204636307899D-11  .000000000000D+00
     .720000000000D+02  .234375000000D+02  .504806741513D-08 -.252950320442D+01
     .128895044327D-05  .406309380196D-02  .661052763462D-05  .515360099030D+04
     .136800000000D+06 -.409781932831D-07  .162604426777D+01 -.188127160072D-06
     .949468738670D+00  .242656250000D+03 -.286497525251D+01 -.832141804903D-08
     .260367988229D-09  .100000000000D+01  .227600000000D+04  .000000000000D+00
     .240000000000D+01  .000000000000D+00 -.838190317154D-08  .720000000000D+02
     .129600000000D+06  .400000000000D+01
